STARLINK-36847          
1 67910U 26036G   26080.00001157 -.00098268  00000+0 -16888-2 0  9997
2 67910  43.0005 182.3644 0001299 297.1672 315.5191 15.50604191  5462
STARLINK-36736          
1 67911U 26036H   26080.50001157 -.01935184  00000+0 -46179-1 0  9996
2 67911  42.9994 178.9224 0001806 271.7624 105.7900 15.44094727  5549
STARLINK-36676          
1 67912U 26036J   26080.50001157 -.01965511  00000+0 -40379-1 0  9990
2 67912  42.9998 179.0139 0001580 275.8591  64.9885 15.48448757  5546
STARLINK-36690          
1 67913U 26036K   26080.50001157 -.01897893  00000+0 -37594-1 0  9993
2 67913  42.9997 178.9966 0001146 279.3755  68.2865 15.49367486  5546
STARLINK-36724          
1 67914U 26036L   26080.50001157 -.01338226  00000+0 -24953-1 0  9999
2 67914  42.9996 178.9477 0001338 286.4242  80.7430 15.50979441  5545
STARLINK-36723          
1 67915U 26036M   26080.50001157 -.01911473  00000+0 -40458-1 0  9999
2 67915  42.9994 178.8803 0001673 278.8393 116.4614 15.47510954  5547
STARLINK-36721          
1 67916U 26036N   26080.50001157 -.01895529  00000+0 -41772-1 0  9993
2 67916  42.9998 178.8656 0001696 276.3733 124.7544 15.46330039  5541
STARLINK-36722          
1 67917U 26036P   26080.50001157 -.01914959  00000+0 -41065-1 0  9998
2 67917  42.9996 178.6388 0001587 284.0406 208.6486 15.47144508  5544
STARLINK-36341          
1 67918U 26036Q   26080.55917220  .00125208  00000+0  21000-2 0  9997
2 67918  42.9991 179.4318 0002192 262.2936  97.7675 15.50659724  5521
STARLINK-36663          
1 67919U 26036R   26080.50001157 -.01895753  00000+0 -42702-1 0  9999
2 67919  42.9987 178.8309 0001722 280.9564 133.9945 15.45700120  5548
STARLINK-36375          
1 67920U 26036S   26080.50001157 -.01878477  00000+0 -46693-1 0  9998
2 67920  43.0004 179.2400 0001004 290.5395 318.9694 15.42806135  5547
STARLINK-36405          
1 67921U 26036T   26080.55662255  .00113966  00000+0  19151-2 0  9998
2 67921  43.0020 179.4120 0002385 267.2981  92.7606 15.50654118  5521
STARLINK-36383          
1 67922U 26036U   26080.56740624  .00542228  00000+0  23897-2 0  9996
2 67922  42.9992 176.8233 0001696 185.9842 174.1010 15.82283910  5550
STARLINK-36406          
1 67923U 26036V   26080.57669077  .00117914  00000+0  19790-2 0  9997
2 67923  43.0046 179.5687 0000912 260.0212 100.0545 15.50672819  5525
STARLINK-36714          
1 67924U 26036W   26080.50001157 -.01902628  00000+0 -40639-1 0  9992
2 67924  42.9999 179.1031 0001174 276.4815  27.5891 15.47240943  5545
STARLINK-36726          
1 67925U 26036X   26080.61909914  .00085946  00000+0  14511-2 0  9996
2 67925  43.0014 179.0182 0002255 268.9567  91.1035 15.50650295  5538
STARLINK-36758          
1 67926U 26036Y   26080.00001157 -.00121737  00000+0 -20990-2 0  9991
2 67926  43.0006 182.1607 0001532 267.8768  65.9523 15.50614063  5461
STARLINK-36728          
1 67927U 26036Z   26080.50001157 -.01971804  00000+0 -38240-1 0  9992
2 67927  42.9997 178.9883 0001216 272.4951  77.0349 15.50081762  5546
STARLINK-36771          
1 67928U 26036AA  26080.50001157 -.00806866  00000+0 -14833-1 0  9999
2 67928  42.9998 179.1165 0001510 260.6121  37.0946 15.50881450  5540
STARLINK-36809          
1 67929U 26036AB  26080.50001157 -.00557907  00000+0 -10119-1 0  9992
2 67929  42.9998 179.0933 0001435 266.2362  40.6759 15.50799975  5540
STARLINK-36865          
1 67930U 26036AC  26080.50001157 -.01948898  00000+0 -39740-1 0  9999
2 67930  42.9997 178.7681 0001363 282.8889 155.5931 15.48633761  5540
STARLINK-36781          
1 67931U 26036AD  26080.50001157 -.01933916  00000+0 -40288-1 0  9994
2 67931  42.9992 178.8225 0001568 281.0923 135.8093 15.48000803  5543
STARLINK-36301          
1 67932U 26037A   26080.50001157 -.01883715  00000+0 -19413-1 0  9993
2 67932  42.9993 126.4431 0001106 282.7306 277.1246 15.66970129  5002
STARLINK-36852          
1 67933U 26037B   26080.50001157  .00119482  00000+0  20176-2 0  9993
2 67933  42.9995 127.2926 0000994 300.3027 276.9618 15.50494179  5092
STARLINK-36861          
1 67934U 26037C   26080.50001157 -.01889261  00000+0 -22926-1 0  9990
2 67934  42.9990 126.5701 0001159 290.6026 218.3862 15.62927139  5096
STARLINK-36860          
1 67935U 26037D   26080.50001157 -.01845273  00000+0 -29802-1 0  9996
2 67935  42.9995 126.9253 0001343 279.2239  86.7525 15.55411913  5095
STARLINK-36848          
1 67936U 26037E   26080.50001157 -.01767935  00000+0 -31146-1 0  9999
2 67936  42.9996 127.0517 0001059 270.7428  44.4315 15.52914850  5095
STARLINK-36370          
1 67937U 26037F   26080.50001157 -.01836900  00000+0 -28689-1 0  9997
2 67937  42.9986 126.8659 0001319 283.2281 106.9316 15.56291132  5094
STARLINK-36371          
1 67938U 26037G   26080.50001157 -.01875078  00000+0 -25295-1 0  9997
2 67938  42.9991 126.6444 0001182 288.7204 189.4935 15.60201152  5095
STARLINK-36246          
1 67939U 26037H   26080.50001157 -.01839909  00000+0 -31607-1 0  9995
2 67939  42.9993 126.9796 0001394 279.5656  64.0246 15.53736482  5000
