OBJECT_NAME,OBJECT_ID,EPOCH,MEAN_MOTION,ECCENTRICITY,INCLINATION,RA_OF_ASC_NODE,ARG_OF_PERICENTER,MEAN_ANOMALY,EPHEMERIS_TYPE,CLASSIFICATION_TYPE,NORAD_CAT_ID,ELEMENT_SET_NO,REV_AT_EPOCH,BSTAR,MEAN_MOTION_DOT,MEAN_MOTION_DDOT
STARLINK-36847,2026-036G,2026-03-21T00:00:00.999648,15.50604191,.00012997,43.0005,182.3644,297.1672,315.5191,0,U,67910,999,546,-.16887909E-2,-.98268E-3,0
STARLINK-36736,2026-036H,2026-03-21T12:00:00.999648,15.44094727,.00018068,42.9994,178.9224,271.7624,105.7900,0,U,67911,999,554,-.46178705E-1,-.1935184E-1,0
STARLINK-36676,2026-036J,2026-03-21T12:00:00.999648,15.48448757,.000158,42.9998,179.0139,275.8591,64.9885,0,U,67912,999,554,-.40379177E-1,-.1965511E-1,0
STARLINK-36690,2026-036K,2026-03-21T12:00:00.999648,15.49367486,.00011469,42.9997,178.9966,279.3755,68.2865,0,U,67913,999,554,-.37593507E-1,-.1897893E-1,0
STARLINK-36724,2026-036L,2026-03-21T12:00:00.999648,15.50979441,.00013388,42.9996,178.9477,286.4242,80.7430,0,U,67914,999,554,-.2495254E-1,-.1338226E-1,0
STARLINK-36723,2026-036M,2026-03-21T12:00:00.999648,15.47510954,.0001673,42.9994,178.8803,278.8393,116.4614,0,U,67915,999,554,-.40457644E-1,-.1911473E-1,0
STARLINK-36721,2026-036N,2026-03-21T12:00:00.999648,15.46330039,.00016961,42.9998,178.8656,276.3733,124.7544,0,U,67916,999,554,-.41772197E-1,-.1895529E-1,0
STARLINK-36722,2026-036P,2026-03-21T12:00:00.999648,15.47144508,.00015879,42.9996,178.6388,284.0406,208.6486,0,U,67917,999,554,-.41065421E-1,-.1914959E-1,0
STARLINK-36341,2026-036Q,2026-03-21T13:25:12.478080,15.50659724,.00021928,42.9991,179.4318,262.2936,97.7675,0,U,67918,999,552,.21000082E-2,.125208E-2,0
STARLINK-36663,2026-036R,2026-03-21T12:00:00.999648,15.45700120,.00017226,42.9987,178.8309,280.9564,133.9945,0,U,67919,999,554,-.42701918E-1,-.1895753E-1,0
STARLINK-36375,2026-036S,2026-03-21T12:00:00.999648,15.42806135,.00010042,43.0004,179.2400,290.5395,318.9694,0,U,67920,999,554,-.46692764E-1,-.1878477E-1,0
STARLINK-36405,2026-036T,2026-03-21T13:21:32.188320,15.50654118,.00023858,43.0020,179.4120,267.2981,92.7606,0,U,67921,999,552,.19150904E-2,.113966E-2,0
STARLINK-36383,2026-036U,2026-03-21T13:37:03.899136,15.82283910,.00016969,42.9992,176.8233,185.9842,174.1010,0,U,67922,999,555,.23897153E-2,.542228E-2,0
STARLINK-36406,2026-036V,2026-03-21T13:50:26.082528,15.50672819,.00009127,43.0046,179.5687,260.0212,100.0545,0,U,67923,999,552,.1979014E-2,.117914E-2,0
STARLINK-36714,2026-036W,2026-03-21T12:00:00.999648,15.47240943,.00011747,42.9999,179.1031,276.4815,27.5891,0,U,67924,999,554,-.40638605E-1,-.1902628E-1,0
STARLINK-36726,2026-036X,2026-03-21T14:51:30.165696,15.50650295,.00022557,43.0014,179.0182,268.9567,91.1035,0,U,67925,999,553,.14510582E-2,.85946E-3,0
STARLINK-36758,2026-036Y,2026-03-21T00:00:00.999648,15.50614063,.00015326,43.0006,182.1607,267.8768,65.9523,0,U,67926,999,546,-.20989961E-2,-.121737E-2,0
STARLINK-36728,2026-036Z,2026-03-21T12:00:00.999648,15.50081762,.00012161,42.9997,178.9883,272.4951,77.0349,0,U,67927,999,554,-.38240069E-1,-.1971804E-1,0
STARLINK-36771,2026-036AA,2026-03-21T12:00:00.999648,15.50881450,.00015102,42.9998,179.1165,260.6121,37.0946,0,U,67928,999,554,-.14832695E-1,-.806866E-2,0
STARLINK-36809,2026-036AB,2026-03-21T12:00:00.999648,15.50799975,.00014357,42.9998,179.0933,266.2362,40.6759,0,U,67929,999,554,-.10119096E-1,-.557907E-2,0
STARLINK-36865,2026-036AC,2026-03-21T12:00:00.999648,15.48633761,.00013633,42.9997,178.7681,282.8889,155.5931,0,U,67930,999,554,-.3973997E-1,-.1948898E-1,0
STARLINK-36781,2026-036AD,2026-03-21T12:00:00.999648,15.48000803,.00015686,42.9992,178.8225,281.0923,135.8093,0,U,67931,999,554,-.40288002E-1,-.1933916E-1,0
STARLINK-36301,2026-037A,2026-03-21T12:00:00.999648,15.66970129,.00011068,42.9993,126.4431,282.7306,277.1246,0,U,67932,999,500,-.19413096E-1,-.1883715E-1,0
STARLINK-36852,2026-037B,2026-03-21T12:00:00.999648,15.50494179,.00009949,42.9995,127.2926,300.3027,276.9618,0,U,67933,999,509,.2017606E-2,.119482E-2,0
STARLINK-36861,2026-037C,2026-03-21T12:00:00.999648,15.62927139,.0001159,42.9990,126.5701,290.6026,218.3862,0,U,67934,999,509,-.22926188E-1,-.1889261E-1,0
STARLINK-36860,2026-037D,2026-03-21T12:00:00.999648,15.55411913,.00013438,42.9995,126.9253,279.2239,86.7525,0,U,67935,999,509,-.29801733E-1,-.1845273E-1,0
STARLINK-36848,2026-037E,2026-03-21T12:00:00.999648,15.52914850,.00010594,42.9996,127.0517,270.7428,44.4315,0,U,67936,999,509,-.31146037E-1,-.1767935E-1,0
STARLINK-36370,2026-037F,2026-03-21T12:00:00.999648,15.56291132,.00013193,42.9986,126.8659,283.2281,106.9316,0,U,67937,999,509,-.28689264E-1,-.18369E-1,0
STARLINK-36371,2026-037G,2026-03-21T12:00:00.999648,15.60201152,.00011822,42.9991,126.6444,288.7204,189.4935,0,U,67938,999,509,-.25295064E-1,-.1875078E-1,0
STARLINK-36246,2026-037H,2026-03-21T12:00:00.999648,15.53736482,.00013944,42.9993,126.9796,279.5656,64.0246,0,U,67939,999,500,-.31606799E-1,-.1839909E-1,0
